ONEWEB-0033             
1 45142U 20008M   25321.77164428  .00000515  00000+0  14398-2 0  9995
2 45142  87.8803  78.4304 0001912  86.2424 273.8922 13.10376495280526
ONEWEB-0035             
1 45143U 20008N   25321.80235740 -.00000194  00000+0 -59265-3 0  9994
2 45143  87.8792  78.4249 0001642  99.0684 261.0629 13.10372568280252
ONEWEB-0036             
1 45144U 20008P   25321.71603441  .00000248  00000+0  67487-3 0  9995
2 45144  87.8804  78.3980 0001377 112.1488 247.9785 13.10370109280673
ONEWEB-0039             
1 45146U 20008R   25321.77497306  .00000642  00000+0  18036-2 0  9997
2 45146  87.8811  78.4015 0001570 121.2044 238.9237 13.10374167280475
ONEWEB-0040             
1 45147U 20008S   25321.61560269  .00000459  00000+0  12791-2 0  9998
2 45147  87.8806  78.4610 0001678 103.5311 256.6004 13.10377042280159
ONEWEB-0043             
1 45149U 20008U   25321.76998435  .00000457  00000+0  12730-2 0  9997
2 45149  87.8802  78.4110 0001311 116.8514 243.2748 13.10376688280497
ONEWEB-0044             
1 45150U 20008V   25321.56911518  .00000040  00000+0  78719-4 0  9993
2 45150  87.8799  78.4427 0001428 111.4320 248.6959 13.10371861280761
